{"dragon": {"capsule": null, "mass_returned_kg": null, "mass_returned_lbs": null, "flight_time_sec": null, "manifest": null, "water_landing": null, "land_landing": null}, "name": "Starlink-13", "type": "Satellite", "reused": false, "launch": "5ef6a2bf0059c33cee4a828c", "customers": ["SpaceX"], "norad_ids": [46670, 46671, 46672, 46673, 46674, 46675, 46676, 46677, 46678, 46679, 46680, 46681, 46682, 46683, 46684, 46685, 46686, 46687, 46688, 46689, 46690, 46691, 46692, 46693, 46694, 46695, 46696, 46697, 46698, 46699, 46700, 46701, 46702, 46703, 46704, 46705, 46706, 46707, 46708, 46709, 46710, 46711, 46712, 46713, 46714, 46715, 46716, 46717, 46718, 46719, 46720, 46721, 46722, 46723, 46724, 46725, 46726, 46727, 46728, 46729], "nationalities": ["United States"], "manufacturers": ["SpaceX"], "mass_kg": 15600, "mass_lbs": 34392, "orbit": "VLEO", "reference_system": "geocentric", "regime": "very-low-earth", "longitude": null, "semi_major_axis_km": 6575.454, "eccentricity": 0.0011864, "periapsis_km": 189.518, "apoapsis_km": 205.12, "inclination_deg": 53.0515, "period_min": 88.439, "lifespan_years": null, "epoch": "2020-10-24T20:24:51.000Z", "mean_motion": 16.28223676, "raan": 77.8706, "arg_of_pericenter": 337.4012, "mean_anomaly": 22.6738, "id": "5ef6a4d50059c33cee4a82a1"}